{
  "type": "FeatureCollection",
  "features": [
    {
      "type": "Feature",
      "properties": {
        "norad_id": 34478,
        "name": "COSMOS 2251 DEB",
        "group": "cosmos-2251-debris",
        "lat": 31.280036040060526,
        "lon": -174.5644083435674,
        "alt_km": 541.9200981153517,
        "timestamp": "2025-12-08T13:49:32.188661+00:00",
        "meta_object_name": "COSMOS 2251 DEB",
        "meta_object_id": "1993-036TX",
        "meta_epoch": "2025-12-08T02:09:28.527264",
        "meta_mean_motion": 15.07431578,
        "meta_eccentricity": 0.00356549,
        "meta_inclination": 74.0399,
        "meta_ra_of_asc_node": 16.4473,
        "meta_arg_of_pericenter": 238.6922,
        "meta_mean_anomaly": 151.7867,
        "meta_ephemeris_type": 0,
        "meta_classification_type": "U",
        "meta_norad_cat_id": 34478,
        "meta_element_set_no": 999,
        "meta_rev_at_epoch": 88903,
        "meta_bstar": 0.0033503358,
        "meta_mean_motion_dot": 0.00051841,
        "meta_mean_motion_ddot": 0,
        "tle_line1": "1 34478U 93036TX  25342.08991351  .00051841  00000+0  33503-2 0  9993",
        "tle_line2": "2 34478  74.0399  16.4473 0035654 238.6922 151.7867 15.07431578889034"
      },
      "geometry": {
        "type": "Point",
        "coordinates": [
          -174.5644083435674,
          31.280036040060526
        ]
      }
    },
    {
      "type": "Feature",
      "properties": {
        "norad_id": 34481,
        "name": "COSMOS 2251 DEB",
        "group": "cosmos-2251-debris",
        "lat": 30.581188611181833,
        "lon": -128.68996635671022,
        "alt_km": 779.3978608573725,
        "timestamp": "2025-12-08T13:49:32.188671+00:00",
        "meta_object_name": "COSMOS 2251 DEB",
        "meta_object_id": "1993-036UA",
        "meta_epoch": "2025-12-08T06:41:40.210368",
        "meta_mean_motion": 14.32524221,
        "meta_eccentricity": 0.0070857,
        "meta_inclination": 73.9806,
        "meta_ra_of_asc_node": 61.6291,
        "meta_arg_of_pericenter": 236.8127,
        "meta_mean_anomaly": 180.2341,
        "meta_ephemeris_type": 0,
        "meta_classification_type": "U",
        "meta_norad_cat_id": 34481,
        "meta_element_set_no": 999,
        "meta_rev_at_epoch": 87385,
        "meta_bstar": 0.001196436,
        "meta_mean_motion_dot": 3.31e-05,
        "meta_mean_motion_ddot": 0,
        "tle_line1": "1 34481U 93036UA  25342.27893762  .00003310  00000+0  11964-2 0  9990",
        "tle_line2": "2 34481  73.9806  61.6291 0070857 236.8127 180.2341 14.32524221873852"
      },
      "geometry": {
        "type": "Point",
        "coordinates": [
          -128.68996635671022,
          30.581188611181833
        ]
      }
    },
    {
      "type": "Feature",
      "properties": {
        "norad_id": 34482,
        "name": "COSMOS 2251 DEB",
        "group": "cosmos-2251-debris",
        "lat": 46.16836654013125,
        "lon": 34.30565648152543,
        "alt_km": 689.9920903026496,
        "timestamp": "2025-12-08T13:49:32.188681+00:00",
        "meta_object_name": "COSMOS 2251 DEB",
        "meta_object_id": "1993-036UB",
        "meta_epoch": "2025-12-08T02:21:06.240960",
        "meta_mean_motion": 14.69029885,
        "meta_eccentricity": 0.00454113,
        "meta_inclination": 74.0365,
        "meta_ra_of_asc_node": 232.5782,
        "meta_arg_of_pericenter": 293.4451,
        "meta_mean_anomaly": 190.7486,
        "meta_ephemeris_type": 0,
        "meta_classification_type": "U",
        "meta_norad_cat_id": 34482,
        "meta_element_set_no": 999,
        "meta_rev_at_epoch": 88119,
        "meta_bstar": 0.0024352149,
        "meta_mean_motion_dot": 0.00014512,
        "meta_mean_motion_ddot": 0,
        "tle_line1": "1 34482U 93036UB  25342.09798890  .00014512  00000+0  24352-2 0  9998",
        "tle_line2": "2 34482  74.0365 232.5782 0045411 293.4451 190.7486 14.69029885881194"
      },
      "geometry": {
        "type": "Point",
        "coordinates": [
          34.30565648152543,
          46.16836654013125
        ]
      }
    },
    {
      "type": "Feature",
      "properties": {
        "norad_id": 34544,
        "name": "COSMOS 2251 DEB",
        "group": "cosmos-2251-debris",
        "lat": -60.983023777929574,
        "lon": 179.42788523826562,
        "alt_km": 889.0573050576786,
        "timestamp": "2025-12-08T13:49:32.188692+00:00",
        "meta_object_name": "COSMOS 2251 DEB",
        "meta_object_id": "1993-036UE",
        "meta_epoch": "2025-12-08T02:32:15.563616",
        "meta_mean_motion": 13.54658928,
        "meta_eccentricity": 0.03844146,
        "meta_inclination": 73.9149,
        "meta_ra_of_asc_node": 211.5315,
        "meta_arg_of_pericenter": 240.8263,
        "meta_mean_anomaly": 277.3195,
        "meta_ephemeris_type": 0,
        "meta_classification_type": "U",
        "meta_norad_cat_id": 34544,
        "meta_element_set_no": 999,
        "meta_rev_at_epoch": 82819,
        "meta_bstar": 0.00035904708,
        "meta_mean_motion_dot": 3.7e-06,
        "meta_mean_motion_ddot": 0,
        "tle_line1": "1 34544U 93036UE  25342.10573569  .00000370  00000+0  35905-3 0  9997",
        "tle_line2": "2 34544  73.9149 211.5315 0384414 240.8263 277.3195 13.54658928828195"
      },
      "geometry": {
        "type": "Point",
        "coordinates": [
          179.42788523826562,
          -60.983023777929574
        ]
      }
    },
    {
      "type": "Feature",
      "properties": {
        "norad_id": 34546,
        "name": "COSMOS 2251 DEB",
        "group": "cosmos-2251-debris",
        "lat": -36.858990523187195,
        "lon": -115.44650207874196,
        "alt_km": 731.4442097830615,
        "timestamp": "2025-12-08T13:49:32.188702+00:00",
        "meta_object_name": "COSMOS 2251 DEB",
        "meta_object_id": "1993-036UG",
        "meta_epoch": "2025-12-07T21:56:09.199968",
        "meta_mean_motion": 14.45377285,
        "meta_eccentricity": 0.00218291,
        "meta_inclination": 74.0316,
        "meta_ra_of_asc_node": 258.1833,
        "meta_arg_of_pericenter": 332.4426,
        "meta_mean_anomaly": 145.4854,
        "meta_ephemeris_type": 0,
        "meta_classification_type": "U",
        "meta_norad_cat_id": 34546,
        "meta_element_set_no": 999,
        "meta_rev_at_epoch": 87956,
        "meta_bstar": 0.00098110058,
        "meta_mean_motion_dot": 3.435e-05,
        "meta_mean_motion_ddot": 0,
        "tle_line1": "1 34546U 93036UG  25341.91399537  .00003435  00000+0  98110-3 0  9990",
        "tle_line2": "2 34546  74.0316 258.1833 0021829 332.4426 145.4854 14.45377285879563"
      },
      "geometry": {
        "type": "Point",
        "coordinates": [
          -115.44650207874196,
          -36.858990523187195
        ]
      }
    },
    {
      "type": "Feature",
      "properties": {
        "norad_id": 34547,
        "name": "COSMOS 2251 DEB",
        "group": "cosmos-2251-debris",
        "lat": 66.32082677058321,
        "lon": -111.93664696830439,
        "alt_km": 645.2755793741253,
        "timestamp": "2025-12-08T13:49:32.188713+00:00",
        "meta_object_name": "COSMOS 2251 DEB",
        "meta_object_id": "1993-036UH",
        "meta_epoch": "2025-12-08T01:55:14.653344",
        "meta_mean_motion": 14.7215671,
        "meta_eccentricity": 0.00180582,
        "meta_inclination": 74.0311,
        "meta_ra_of_asc_node": 109.7939,
        "meta_arg_of_pericenter": 189.5997,
        "meta_mean_anomaly": 170.4833,
        "meta_ephemeris_type": 0,
        "meta_classification_type": "U",
        "meta_norad_cat_id": 34547,
        "meta_element_set_no": 999,
        "meta_rev_at_epoch": 88453,
        "meta_bstar": 0.002663155,
        "meta_mean_motion_dot": 0.00016832,
        "meta_mean_motion_ddot": 0,
        "tle_line1": "1 34547U 93036UH  25342.08003071  .00016832  00000+0  26632-2 0  9999",
        "tle_line2": "2 34547  74.0311 109.7939 0018058 189.5997 170.4833 14.72156710884537"
      },
      "geometry": {
        "type": "Point",
        "coordinates": [
          -111.93664696830439,
          66.32082677058321
        ]
      }
    },
    {
      "type": "Feature",
      "properties": {
        "norad_id": 34553,
        "name": "COSMOS 2251 DEB",
        "group": "cosmos-2251-debris",
        "lat": -40.387780501810795,
        "lon": 33.91755693318601,
        "alt_km": 698.9851607643423,
        "timestamp": "2025-12-08T13:49:32.188723+00:00",
        "meta_object_name": "COSMOS 2251 DEB",
        "meta_object_id": "1993-036UP",
        "meta_epoch": "2025-12-08T01:51:30.124800",
        "meta_mean_motion": 14.57656616,
        "meta_eccentricity": 0.00195206,
        "meta_inclination": 74.0242,
        "meta_ra_of_asc_node": 200.7604,
        "meta_arg_of_pericenter": 278.4513,
        "meta_mean_anomaly": 208.4661,
        "meta_ephemeris_type": 0,
        "meta_classification_type": "U",
        "meta_norad_cat_id": 34553,
        "meta_element_set_no": 999,
        "meta_rev_at_epoch": 88028,
        "meta_bstar": 0.0014229085,
        "meta_mean_motion_dot": 6.483e-05,
        "meta_mean_motion_ddot": 0,
        "tle_line1": "1 34553U 93036UP  25342.07743200  .00006483  00000+0  14229-2 0  9990",
        "tle_line2": "2 34553  74.0242 200.7604 0019520 278.4513 208.4661 14.57656616880287"
      },
      "geometry": {
        "type": "Point",
        "coordinates": [
          33.91755693318601,
          -40.387780501810795
        ]
      }
    }
  ]
}